{
  "type": "FeatureCollection",
  "features": [
    {
      "type": "Feature",
      "properties": {
        "norad_id": 34765,
        "name": "IRIDIUM 33 DEB",
        "group": "iridium-33-debris",
        "lat": 79.1373918674168,
        "lon": -170.14661206197246,
        "alt_km": 748.4546317696795,
        "timestamp": "2025-12-20T16:47:36.669762+00:00",
        "meta_object_name": "IRIDIUM 33 DEB",
        "meta_object_id": "1997-051LJ",
        "meta_epoch": "2025-12-18T13:21:25.941600",
        "meta_mean_motion": 14.40479279,
        "meta_eccentricity": 0.00160914,
        "meta_inclination": 86.3386,
        "meta_ra_of_asc_node": 30.2656,
        "meta_arg_of_pericenter": 191.4295,
        "meta_mean_anomaly": 322.071,
        "meta_ephemeris_type": 0,
        "meta_classification_type": "U",
        "meta_norad_cat_id": 34765,
        "meta_element_set_no": 999,
        "meta_rev_at_epoch": 87697,
        "meta_bstar": 0.00029987235,
        "meta_mean_motion_dot": 9.74e-06,
        "meta_mean_motion_ddot": 0,
        "tle_line1": "1 34765U 97051LJ  25352.55655025  .00000974  00000+0  29987-3 0  9994",
        "tle_line2": "2 34765  86.3386  30.2656 0016091 191.4295 322.0710 14.40479279876970"
      },
      "geometry": {
        "type": "Point",
        "coordinates": [
          -170.14661206197246,
          79.1373918674168
        ]
      }
    },
    {
      "type": "Feature",
      "properties": {
        "norad_id": 34833,
        "name": "IRIDIUM 33 DEB",
        "group": "iridium-33-debris",
        "lat": -7.492707009758573,
        "lon": -131.96064337943835,
        "alt_km": 727.8459622497694,
        "timestamp": "2025-12-20T16:47:36.669772+00:00",
        "meta_object_name": "IRIDIUM 33 DEB",
        "meta_object_id": "1997-051MH",
        "meta_epoch": "2025-12-19T09:05:01.669920",
        "meta_mean_motion": 14.52414234,
        "meta_eccentricity": 0.0021541,
        "meta_inclination": 86.3931,
        "meta_ra_of_asc_node": 48.1333,
        "meta_arg_of_pericenter": 78.2401,
        "meta_mean_anomaly": 44.9997,
        "meta_ephemeris_type": 0,
        "meta_classification_type": "U",
        "meta_norad_cat_id": 34833,
        "meta_element_set_no": 999,
        "meta_rev_at_epoch": 87811,
        "meta_bstar": 0.00049084,
        "meta_mean_motion_dot": 2.026e-05,
        "meta_mean_motion_ddot": 0,
        "tle_line1": "1 34833U 97051MH  25353.37849155  .00002026  00000+0  49084-3 0  9990",
        "tle_line2": "2 34833  86.3931  48.1333 0021541  78.2401  44.9997 14.52414234878117"
      },
      "geometry": {
        "type": "Point",
        "coordinates": [
          -131.96064337943835,
          -7.492707009758573
        ]
      }
    },
    {
      "type": "Feature",
      "properties": {
        "norad_id": 34870,
        "name": "IRIDIUM 33 DEB",
        "group": "iridium-33-debris",
        "lat": 50.849035841551796,
        "lon": 125.89181145719519,
        "alt_km": 624.8104638550521,
        "timestamp": "2025-12-20T16:47:36.669783+00:00",
        "meta_object_name": "IRIDIUM 33 DEB",
        "meta_object_id": "1997-051MQ",
        "meta_epoch": "2025-12-17T15:48:12.189024",
        "meta_mean_motion": 14.76525212,
        "meta_eccentricity": 0.00169592,
        "meta_inclination": 86.3102,
        "meta_ra_of_asc_node": 311.8309,
        "meta_arg_of_pericenter": 164.6796,
        "meta_mean_anomaly": 8.9227,
        "meta_ephemeris_type": 0,
        "meta_classification_type": "U",
        "meta_norad_cat_id": 34870,
        "meta_element_set_no": 999,
        "meta_rev_at_epoch": 88983,
        "meta_bstar": 0.0011120343,
        "meta_mean_motion_dot": 7.793e-05,
        "meta_mean_motion_ddot": 0,
        "tle_line1": "1 34870U 97051MQ  25351.65847441  .00007793  00000+0  11120-2 0  9991",
        "tle_line2": "2 34870  86.3102 311.8309 0016959 164.6796   8.9227 14.76525212889837"
      },
      "geometry": {
        "type": "Point",
        "coordinates": [
          125.89181145719519,
          50.849035841551796
        ]
      }
    },
    {
      "type": "Feature",
      "properties": {
        "norad_id": 34896,
        "name": "IRIDIUM 33 DEB",
        "group": "iridium-33-debris",
        "lat": 38.18501549890742,
        "lon": -33.990497446908996,
        "alt_km": 684.8533060328373,
        "timestamp": "2025-12-20T16:47:36.669793+00:00",
        "meta_object_name": "IRIDIUM 33 DEB",
        "meta_object_id": "1997-051MY",
        "meta_epoch": "2025-12-17T17:20:43.717344",
        "meta_mean_motion": 14.6632638,
        "meta_eccentricity": 0.00248916,
        "meta_inclination": 86.3286,
        "meta_ra_of_asc_node": 324.4498,
        "meta_arg_of_pericenter": 196.3048,
        "meta_mean_anomaly": 337.3904,
        "meta_ephemeris_type": 0,
        "meta_classification_type": "U",
        "meta_norad_cat_id": 34896,
        "meta_element_set_no": 999,
        "meta_rev_at_epoch": 87692,
        "meta_bstar": 0.00069874419,
        "meta_mean_motion_dot": 3.895e-05,
        "meta_mean_motion_ddot": 0,
        "tle_line1": "1 34896U 97051MY  25351.72272821  .00003895  00000+0  69874-3 0  9990",
        "tle_line2": "2 34896  86.3286 324.4498 0024891 196.3048 337.3904 14.66326380876924"
      },
      "geometry": {
        "type": "Point",
        "coordinates": [
          -33.990497446908996,
          38.18501549890742
        ]
      }
    },
    {
      "type": "Feature",
      "properties": {
        "norad_id": 34926,
        "name": "IRIDIUM 33 DEB",
        "group": "iridium-33-debris",
        "lat": 30.74833357978254,
        "lon": -177.72528814545964,
        "alt_km": 731.6734805005317,
        "timestamp": "2025-12-20T16:47:36.669830+00:00",
        "meta_object_name": "IRIDIUM 33 DEB",
        "meta_object_id": "1997-051NF",
        "meta_epoch": "2025-12-20T01:29:58.203744",
        "meta_mean_motion": 14.54723166,
        "meta_eccentricity": 0.00745564,
        "meta_inclination": 86.1315,
        "meta_ra_of_asc_node": 4.8773,
        "meta_arg_of_pericenter": 267.4346,
        "meta_mean_anomaly": 147.2463,
        "meta_ephemeris_type": 0,
        "meta_classification_type": "U",
        "meta_norad_cat_id": 34926,
        "meta_element_set_no": 999,
        "meta_rev_at_epoch": 86563,
        "meta_bstar": 0.0033633995,
        "meta_mean_motion_dot": 0.00014979,
        "meta_mean_motion_ddot": 0,
        "tle_line1": "1 34926U 97051NF  25354.06247921  .00014979  00000+0  33634-2 0  9996",
        "tle_line2": "2 34926  86.1315   4.8773 0074556 267.4346 147.2463 14.54723166865632"
      },
      "geometry": {
        "type": "Point",
        "coordinates": [
          -177.72528814545964,
          30.74833357978254
        ]
      }
    },
    {
      "type": "Feature",
      "properties": {
        "norad_id": 34985,
        "name": "IRIDIUM 33 DEB",
        "group": "iridium-33-debris",
        "lat": -83.59810213226709,
        "lon": 19.016553349617872,
        "alt_km": 757.0650259985805,
        "timestamp": "2025-12-20T16:47:36.669853+00:00",
        "meta_object_name": "IRIDIUM 33 DEB",
        "meta_object_id": "1997-051NR",
        "meta_epoch": "2025-12-20T10:36:23.037120",
        "meta_mean_motion": 14.42039347,
        "meta_eccentricity": 0.0021561,
        "meta_inclination": 86.369,
        "meta_ra_of_asc_node": 53.594,
        "meta_arg_of_pericenter": 194.0742,
        "meta_mean_anomaly": 183.5086,
        "meta_ephemeris_type": 0,
        "meta_classification_type": "U",
        "meta_norad_cat_id": 34985,
        "meta_element_set_no": 999,
        "meta_rev_at_epoch": 87286,
        "meta_bstar": 0.00043685,
        "meta_mean_motion_dot": 1.457e-05,
        "meta_mean_motion_ddot": 0,
        "tle_line1": "1 34985U 97051NR  25354.44193330  .00001457  00000+0  43685-3 0  9992",
        "tle_line2": "2 34985  86.3690  53.5940 0021561 194.0742 183.5086 14.42039347872860"
      },
      "geometry": {
        "type": "Point",
        "coordinates": [
          19.016553349617872,
          -83.59810213226709
        ]
      }
    },
    {
      "type": "Feature",
      "properties": {
        "norad_id": 35051,
        "name": "IRIDIUM 33 DEB",
        "group": "iridium-33-debris",
        "lat": 7.467848179472483,
        "lon": 5.875517128840548,
        "alt_km": 731.7876111345549,
        "timestamp": "2025-12-20T16:47:36.669870+00:00",
        "meta_object_name": "IRIDIUM 33 DEB",
        "meta_object_id": "1997-051NX",
        "meta_epoch": "2025-12-19T07:34:48.667584",
        "meta_mean_motion": 14.47625509,
        "meta_eccentricity": 0.0010483,
        "meta_inclination": 86.3238,
        "meta_ra_of_asc_node": 5.9957,
        "meta_arg_of_pericenter": 72.9006,
        "meta_mean_anomaly": 287.3345,
        "meta_ephemeris_type": 0,
        "meta_classification_type": "U",
        "meta_norad_cat_id": 35051,
        "meta_element_set_no": 999,
        "meta_rev_at_epoch": 87091,
        "meta_bstar": 0.00045048,
        "meta_mean_motion_dot": 1.68e-05,
        "meta_mean_motion_ddot": 0,
        "tle_line1": "1 35051U 97051NX  25353.31584106  .00001680  00000+0  45048-3 0  9990",
        "tle_line2": "2 35051  86.3238   5.9957 0010483  72.9006 287.3345 14.47625509870911"
      },
      "geometry": {
        "type": "Point",
        "coordinates": [
          5.875517128840548,
          7.467848179472483
        ]
      }
    }
  ]
}